CENTISPACE-1 S4         
1 53758U 22108B   26177.69504153  .00000545  00000+0  14566-3 0  9995
2 53758  53.5315  13.4160 0009123   9.2687 350.8455 14.61947069202959
BLUEWALKER-3            
1 53807U 22111AL  26177.73026477  .00006150  00000+0  17020-3 0  9993
2 53807  53.2301 349.1662 0005490 190.9175 169.1711 15.38388310211673
YUNHAI-1 03             
1 53877U 22115A   26177.68531547  .00000282  00000+0  11958-3 0  9991
2 53877  98.5534 175.7118 0005341  32.3710 327.7801 14.32724425196878
CENTISPACE-1 S5         
1 54020U 22126A   26177.71716685  .00000602  00000+0  15322-3 0  9991
2 54020  54.9972 174.8234 0014715  90.0340 270.2341 14.63026056198439
CENTISPACE-1 S6         
1 54021U 22126B   26177.71507596  .00000107  00000+0  58272-4 0  9993
2 54021  54.9975 176.7413 0016542  90.4821 269.8068 14.62295650198393
OTB-3-GAZELLE           
1 54023U 22127A   26177.70027647  .00000147  00000+0  57271-4 0  9991
2 54023  98.3946 169.2599 0013625 154.9071 205.2784 14.42677700195731
ASO-S                   
1 54029U 22129A   26177.76311508  .00000216  00000+0  64251-4 0  9990
2 54029  98.2747 182.7063 0015610  65.7980 294.4845 14.52066028196819
HJ-2E                   
1 54035U 22132A   26177.74988931  .00007993  00000+0  34671-3 0  9990
2 54035  97.3795 181.9541 0019242 341.1655  18.8868 15.22449309205871
COSMOS 2561             
1 54109U 22137A   26177.77013021  .00013327  00000+0  22311-3 0  9995
2 54109  96.9180 236.4129 0009353   1.7402 358.3883 15.51932089207836
GONETS-M 23             
1 54150U 22139A   26177.76140992  .00000039  00000+0  20913-3 0  9992
2 54150  82.5077 342.3433 0021302 198.2761 161.7555 12.42891284166835
GONETS-M 24             
1 54151U 22139B   26177.73449080  .00000038  00000+0  20057-3 0  9998
2 54151  82.4994 341.4134 0016378 208.2698 151.7494 12.42891905166830
GONETS-M 25             
1 54152U 22139C   26177.72089235  .00000027  00000+0  12402-3 0  9993
2 54152  82.5060 342.1133 0020284 207.2767 152.7249 12.42890322166831
SKIF-D                  
1 54153U 22139D   26177.45038105 -.00000014  00000+0  00000+0 0  9998
2 54153  89.9498  96.6653 0007400 195.3772 164.6521  5.00426928 64570
MATS                    
1 54227U 22147A   26177.48774023  .00004184  00000+0  29550-3 0  9994
2 54227  97.6819 179.0436 0013037 162.0017 198.1674 15.05406389199166
JILIN-1 GAOFEN 03D54    
1 54254U 22155D   26177.51753862  .00668104  22941-3  85694-3 0  9996
2 54254  97.6177 331.9486 0008741 261.3452  98.6840 16.07236427201798
EOS-6 (OCEANSAT-3)      
1 54361U 22158A   26177.77438517  .00000248  00000+0  80286-4 0  9993
2 54361  98.3546 275.8416 0000721  45.4285 314.6967 14.47005616189229
DONGPO 09               
1 54685U 22167D   26177.72327176  .00011670  00000+0  32949-3 0  9998
2 54685  97.6898 349.1573 0003606  94.9564 265.2091 15.36538911196914
DONGPO 08               
1 54686U 22167E   26177.72052167  .00010489  00000+0  32263-3 0  9990
2 54686  97.6862 346.2871 0009221 130.1614 230.0437 15.33830114196789
2022-167F               
1 54687U 22167F   26177.49566458  .00332615  47123-4  75470-3 0  9995
2 54687  97.6049   6.6021 0002646 240.7459 119.3553 15.97531078198316
DONGPO 10               
1 54689U 22167H   26177.72213067  .00010690  00000+0  32070-3 0  9991
2 54689  97.6943 348.2629 0006203  83.6944 276.5004 15.34641190196825
JILIN-1 GAOFEN 03D48    
1 54695U 22167P   26177.71505606  .00011215  00000+0  32804-3 0  9999
2 54695  97.6878 347.6367 0007544  87.0957 273.1149 15.35417063196859
STAR VIBE               
1 55009U 23001A   26177.64026647  .00014428  00000+0  33034-3 0  9997
2 55009  97.3173 242.1431 0006996  86.4423 273.7625 15.42866985193688
BRO-8                   
1 55011U 23001C   26177.73617015  .00029565  00000+0  53457-3 0  9994
2 55011  97.3214 243.0607 0006590  97.8036 262.3963 15.49626216193685
CONNECTA T1.2           
1 55012U 23001D   26177.71904954  .00040302  00000+0  68209-3 0  9997
2 55012  97.3266 248.5827 0005894  74.4165 285.7738 15.51443759194027
BIRKELAND               
1 55015U 23001G   26177.69725127  .00009010  00000+0  22593-3 0  9997
2 55015  97.3350 245.6916 0008116  78.0309 282.1846 15.40236126193814
ION SCV-008             
1 55051U 23001AU  26177.72966198  .00006240  00000+0  22596-3 0  9991
2 55051  97.5715 274.2075 0014102 344.4620  15.6184 15.28679657192799
ION SCV-007             
1 55060U 23001BD  26177.67880138  .00000387  00000+0  61271-4 0  9994
2 55060  97.9004 240.5055 0011169 309.4794  50.5428 14.77561011187656
HUYGENS                 
1 55093U 23001CN  26177.69732639  .00009279  00000+0  23241-3 0  9997
2 55093  97.3253 244.9092 0010488  56.9894 303.2359 15.40237575193833
SHARJAHSAT-1            
1 55104U 23001CZ  26177.67223897  .00020019  00000+0  36548-3 0  9998
2 55104  97.3179 246.5705 0006460  76.7228 283.4743 15.49427468193969
HORUS 1                 
1 55690U 23025A   26177.74347277  .00005802  00000+0  24707-3 0  9998
2 55690  97.3466 252.1370 0002045 139.3295 220.8095 15.23356005185500
