OBJECT_NAME,OBJECT_ID,EPOCH,MEAN_MOTION,ECCENTRICITY,INCLINATION,RA_OF_ASC_NODE,ARG_OF_PERICENTER,MEAN_ANOMALY,EPHEMERIS_TYPE,CLASSIFICATION_TYPE,NORAD_CAT_ID,ELEMENT_SET_NO,REV_AT_EPOCH,BSTAR,MEAN_MOTION_DOT,MEAN_MOTION_DDOT
CENTISPACE-1 S4,2022-108B,2026-06-26T16:40:51.588192,14.61947069,.0009123,53.5315,13.4160,9.2687,350.8455,0,U,53758,999,20295,.14566E-3,.545E-5,0
BLUEWALKER-3,2022-111AL,2026-06-26T17:31:34.876128,15.38388310,.000549,53.2301,349.1662,190.9175,169.1711,0,U,53807,999,21167,.1702E-3,.615E-4,0
YUNHAI-1 03,2022-115A,2026-06-26T16:26:51.256608,14.32724425,.0005341,98.5534,175.7118,32.3710,327.7801,0,U,53877,999,19687,.11958E-3,.282E-5,0
CENTISPACE-1 S5,2022-126A,2026-06-26T17:12:43.215840,14.63026056,.0014715,54.9972,174.8234,90.0340,270.2341,0,U,54020,999,19843,.15322E-3,.602E-5,0
CENTISPACE-1 S6,2022-126B,2026-06-26T17:09:42.562944,14.62295650,.0016542,54.9975,176.7413,90.4821,269.8068,0,U,54021,999,19839,.58272E-4,.107E-5,0
OTB-3-GAZELLE,2022-127A,2026-06-26T16:48:23.887008,14.42677700,.0013625,98.3946,169.2599,154.9071,205.2784,0,U,54023,999,19573,.57271E-4,.147E-5,0
ASO-S,2022-129A,2026-06-26T18:18:53.142912,14.52066028,.001561,98.2747,182.7063,65.7980,294.4845,0,U,54029,999,19681,.64251E-4,.216E-5,0
HJ-2E,2022-132A,2026-06-26T17:59:50.436384,15.22449309,.0019242,97.3795,181.9541,341.1655,18.8868,0,U,54035,999,20587,.34671E-3,.7993E-4,0
COSMOS 2561,2022-137A,2026-06-26T18:28:59.250144,15.51932089,.0009353,96.9180,236.4129,1.7402,358.3883,0,U,54109,999,20783,.22311E-3,.13327E-3,0
GONETS-M 23,2022-139A,2026-06-26T18:16:25.817088,12.42891284,.0021302,82.5077,342.3433,198.2761,161.7555,0,U,54150,999,16683,.20913E-3,.39E-6,0
GONETS-M 24,2022-139B,2026-06-26T17:37:40.005120,12.42891905,.0016378,82.4994,341.4134,208.2698,151.7494,0,U,54151,999,16683,.20057E-3,.38E-6,0
GONETS-M 25,2022-139C,2026-06-26T17:18:05.099040,12.42890322,.0020284,82.5060,342.1133,207.2767,152.7249,0,U,54152,999,16683,.12402E-3,.27E-6,0
SKIF-D,2022-139D,2026-06-26T10:48:32.922720,5.00426928,.00074,89.9498,96.6653,195.3772,164.6521,0,U,54153,999,6457,0,-.14E-6,0
MATS,2022-147A,2026-06-26T11:42:20.755872,15.05406389,.0013037,97.6819,179.0436,162.0017,198.1674,0,U,54227,999,19916,.2955E-3,.4184E-4,0
JILIN-1 GAOFEN 03D54,2022-155D,2026-06-26T12:25:15.336768,16.07236427,.0008741,97.6177,331.9486,261.3452,98.6840,0,U,54254,999,20179,.85694E-3,.668104E-2,.22941E-3
EOS-6 (OCEANSAT-3),2022-158A,2026-06-26T18:35:06.878688,14.47005616,.0000721,98.3546,275.8416,45.4285,314.6967,0,U,54361,999,18922,.80286E-4,.248E-5,0
DONGPO 09,2022-167D,2026-06-26T17:21:30.680064,15.36538911,.0003606,97.6898,349.1573,94.9564,265.2091,0,U,54685,999,19691,.32949E-3,.1167E-3,0
DONGPO 08,2022-167E,2026-06-26T17:17:33.072288,15.33830114,.0009221,97.6862,346.2871,130.1614,230.0437,0,U,54686,999,19678,.32263E-3,.10489E-3,0
2022-167F,2022-167F,2026-06-26T11:53:45.419712,15.97531078,.0002646,97.6049,6.6021,240.7459,119.3553,0,U,54687,999,19831,.7547E-3,.332615E-2,.47123E-4
DONGPO 10,2022-167H,2026-06-26T17:19:52.089888,15.34641190,.0006203,97.6943,348.2629,83.6944,276.5004,0,U,54689,999,19682,.3207E-3,.1069E-3,0
JILIN-1 GAOFEN 03D48,2022-167P,2026-06-26T17:09:40.843584,15.35417063,.0007544,97.6878,347.6367,87.0957,273.1149,0,U,54695,999,19685,.32804E-3,.11215E-3,0
STAR VIBE,2023-001A,2026-06-26T15:21:59.023008,15.42866985,.0006996,97.3173,242.1431,86.4423,273.7625,0,U,55009,999,19368,.33034E-3,.14428E-3,0
BRO-8,2023-001C,2026-06-26T17:40:05.100960,15.49626216,.000659,97.3214,243.0607,97.8036,262.3963,0,U,55011,999,19368,.53457E-3,.29565E-3,0
CONNECTA T1.2,2023-001D,2026-06-26T17:15:25.880256,15.51443759,.0005894,97.3266,248.5827,74.4165,285.7738,0,U,55012,999,19402,.68209E-3,.40302E-3,0
BIRKELAND,2023-001G,2026-06-26T16:44:02.509728,15.40236126,.0008116,97.3350,245.6916,78.0309,282.1846,0,U,55015,999,19381,.22593E-3,.901E-4,0
ION SCV-008,2023-001AU,2026-06-26T17:30:42.795072,15.28679657,.0014102,97.5715,274.2075,344.4620,15.6184,0,U,55051,999,19279,.22596E-3,.624E-4,0
ION SCV-007,2023-001BD,2026-06-26T16:17:28.439232,14.77561011,.0011169,97.9004,240.5055,309.4794,50.5428,0,U,55060,999,18765,.61271E-4,.387E-5,0
HUYGENS,2023-001CN,2026-06-26T16:44:09.000096,15.40237575,.0010488,97.3253,244.9092,56.9894,303.2359,0,U,55093,999,19383,.23241E-3,.9279E-4,0
SHARJAHSAT-1,2023-001CZ,2026-06-26T16:08:01.447008,15.49427468,.000646,97.3179,246.5705,76.7228,283.4743,0,U,55104,999,19396,.36548E-3,.20019E-3,0
HORUS 1,2023-025A,2026-06-26T17:50:36.047328,15.23356005,.0002045,97.3466,252.1370,139.3295,220.8095,0,U,55690,999,18550,.24707E-3,.5802E-4,0
